NORAD_CAT_ID,OBJECT_NAME,OBJECT_TYPE,EPOCH,MEAN_MOTION,ECCENTRICITY,INCLINATION,RA_OF_ASC_NODE,ARG_OF_PERICENTER,MEAN_ANOMALY,BSTAR,MEAN_MOTION_DOT,MEAN_MOTION_DDOT,TLE_LINE0,TLE_LINE1,TLE_LINE2,SEMIMAJOR_AXIS,PERIOD,APOGEE,PERIGEE,DECAYED
53632.0,STARLINK-4606,PAYLOAD,2024-02-07 09:07:36,15.08841217,0.0001566,53.2185,41.7552,91.3973,268.7199,5.134e-05,5.29e-06,0.0,0 STARLINK-4606,1 53632U 22104AW  24038.38028211  .00000529  00000-0  51340-4 0  9993,2 53632  53.2185  41.7552 0001566  91.3973 268.7199 15.08841217 80275,6917.877,95.437,540.825,538.658,0.0
53632.0,STARLINK-4606,PAYLOAD,2024-02-07 17:04:32,15.08842835,0.0001604,53.2192,40.2692,85.3861,274.7314,-1.4363e-05,-5.17e-06,0.0,0 STARLINK-4606,1 53632U 22104AW  24038.71148291 -.00000517  00000-0 -14363-4 0  9994,2 53632  53.2192  40.2692 0001604  85.3861 274.7314 15.08842835 81346,6917.872,95.437,540.846,538.627,0.0
53632.0,STARLINK-4606,PAYLOAD,2024-02-08 04:12:14,15.08833154,0.0001725,53.2194,38.1871,87.5852,272.5337,4.0204e-05,3.52e-06,0.0,0 STARLINK-4606,1 53632U 22104AW  24039.17517040  .00000352  00000-0  40204-4 0  9995,2 53632  53.2194  38.1871 0001725  87.5852 272.5337 15.08833154 80390,6917.901,95.438,540.96,538.573,0.0
53632.0,STARLINK-4606,PAYLOAD,2024-02-08 08:58:23,15.08837157,0.0001641,53.2186,37.2955,88.5736,271.5444,5.2071e-05,5.41e-06,0.0,0 STARLINK-4606,1 53632U 22104AW  24039.37388807  .00000541  00000-0  52071-4 0  9999,2 53632  53.2186  37.2955 0001641  88.5736 271.5444 15.08837157 81445,6917.889,95.438,540.889,538.619,0.0
53632.0,STARLINK-4606,PAYLOAD,2024-02-09 04:03:01,15.08843585,0.0001569,53.2186,33.7266,80.6262,279.4907,4.5614e-05,4.38e-06,0.0,0 STARLINK-4606,1 53632U 22104AW  24040.16876563  .00000438  00000-0  45614-4 0  9999,2 53632  53.2186  33.7266 0001569  80.6262 279.4907 15.08843585 80540,6917.869,95.437,540.82,538.649,0.0
53632.0,STARLINK-4606,PAYLOAD,2024-02-09 07:13:47,15.0884755,0.0001653,53.2189,33.1313,78.5556,281.5621,9.297e-05,1.192e-05,0.0,0 STARLINK-4606,1 53632U 22104AW  24040.30124187  .00001192  00000-0  92970-4 0  9998,2 53632  53.2189  33.1313 0001653  78.5556 281.5621 15.08847550 81584,6917.857,95.437,540.866,538.579,0.0
53632.0,STARLINK-4606,PAYLOAD,2024-02-10 03:53:48,15.08837533,0.0001732,53.2185,29.2689,82.0124,278.1065,7.6019e-05,9.22e-06,0.0,0 STARLINK-4606,1 53632U 22104AW  24041.16236869  .00000922  00000-0  76019-4 0  9990,2 53632  53.2185  29.2689 0001732  82.0124 278.1065 15.08837533 80696,6917.888,95.438,540.951,538.555,0.0
53632.0,STARLINK-4606,PAYLOAD,2024-02-10 08:39:57,15.08846823,0.0001486,53.2185,28.3723,101.5517,258.5642,9.2108e-05,1.178e-05,0.0,0 STARLINK-4606,1 53632U 22104AW  24041.36108064  .00001178  00000-0  92108-4 0  9998,2 53632  53.2185  28.3723 0001486 101.5517 258.5642 15.08846823 80723,6917.86,95.437,540.753,538.697,0.0
53632.0,STARLINK-4606,PAYLOAD,2024-02-11 03:44:35,15.08847517,0.0001745,53.2186,24.8039,123.9149,236.2009,-3.9811e-05,-9.22e-06,0.0,0 STARLINK-4606,1 53632U 22104AW  24042.15596314 -.00000922  00000-0 -39811-4 0  9995,2 53632  53.2186  24.8039 0001745 123.9149 236.2009 15.08847517 80846,6917.857,95.437,540.93,538.515,0.0
53632.0,STARLINK-4606,PAYLOAD,2024-02-11 08:30:44,15.08850134,0.0001709,53.2191,23.91,113.6388,246.4783,-2.2257e-07,-2.92e-06,0.0,0 STARLINK-4606,1 53632U 22104AW  24042.35467973 -.00000292  00000-0 -22257-6 0  9993,2 53632  53.2191  23.9100 0001709 113.6388 246.4783 15.08850134 81899,6917.849,95.437,540.897,538.532,0.0
53632.0,STARLINK-4606,PAYLOAD,2024-02-11 22:49:13,15.08818893,0.0001706,53.2192,21.2306,113.1871,246.9301,0.00026414,3.916e-05,0.0,0 STARLINK-4606,1 53632U 22104AW  24042.95084937  .00003916  00000-0  26414-3 0  9994,2 53632  53.2192  21.2306 0001706 113.1871 246.9301 15.08818893 81985,6917.945,95.439,540.99,538.63,0.0
53632.0,STARLINK-4606,PAYLOAD,2024-02-12 03:35:22,15.08841489,0.0001641,53.22,20.3487,105.3598,254.7576,5.3342e-05,5.61e-06,0.0,0 STARLINK-4606,1 53632U 22104AW  24043.14956443  .00000561  00000-0  53342-4 0  9990,2 53632  53.2200  20.3487 0001641 105.3598 254.7576 15.08841489 80990,6917.876,95.437,540.876,538.606,0.0
53632.0,STARLINK-4606,PAYLOAD,2024-02-12 05:10:45,15.08845475,0.0001779,53.2196,20.0494,109.5432,250.5752,6.5588e-05,7.56e-06,0.0,0 STARLINK-4606,1 53632U 22104AW  24043.21580166  .00000756  00000-0  65588-4 0  9994,2 53632  53.2196  20.0494 0001779 109.5432 250.5752 15.08845475 82029,6917.864,95.437,540.959,538.498,0.0
53632.0,STARLINK-4606,PAYLOAD,2024-02-12 22:40:00,15.08839469,0.0001608,53.2187,16.7776,106.7338,253.3831,-5.4226e-05,-1.151e-05,0.0,0 STARLINK-4606,1 53632U 22104AW  24043.94445016 -.00001151  00000-0 -54226-4 0  9997,2 53632  53.2187  16.7776 0001608 106.7338 253.3831 15.08839469 82136,6917.882,95.438,540.859,538.635,0.0
53632.0,STARLINK-4606,PAYLOAD,2024-02-13 05:01:32,15.08839883,0.0001637,53.2196,15.5878,114.3713,245.745,4.4051e-05,4.13e-06,0.0,0 STARLINK-4606,1 53632U 22104AW  24044.20940691  .00000413  00000-0  44051-4 0  9999,2 53632  53.2196  15.5878 0001637 114.3713 245.7450 15.08839883 81153,6917.881,95.438,540.878,538.613,0.0
53632.0,STARLINK-4606,PAYLOAD,2024-02-13 14:33:51,15.08845538,0.0001326,53.2192,13.8042,87.9298,272.1845,-1.6237e-05,-5.46e-06,0.0,0 STARLINK-4606,1 53632U 22104AW  24044.60684540 -.00000546  00000-0 -16237-4 0  9995,2 53632  53.2192  13.8042 0001326  87.9298 272.1845 15.08845538 82237,6917.863,95.437,540.646,538.811,0.0
53632.0,STARLINK-4606,PAYLOAD,2024-02-14 08:03:05,15.08849675,0.0001343,53.2185,10.5324,96.1036,264.011,0.00011345,1.519e-05,0.0,0 STARLINK-4606,1 53632U 22104AW  24045.33548095  .00001519  00000-0  11345-3 0  9993,2 53632  53.2185  10.5324 0001343  96.1036 264.0110 15.08849675 81327,6917.851,95.437,540.645,538.787,0.0
53632.0,STARLINK-4606,PAYLOAD,2024-02-14 14:24:39,15.08835484,0.0001296,53.2177,9.3392,90.9355,269.1785,6.3971e-05,7.3e-06,0.0,0 STARLINK-4606,1 53632U 22104AW  24045.60045181  .00000730  00000-0  63971-4 0  9998,2 53632  53.2177   9.3392 0001296  90.9355 269.1785 15.08835484 82386,6917.894,95.438,540.656,538.863,0.0
53632.0,STARLINK-4606,PAYLOAD,2024-02-15 07:53:53,15.08841323,0.0001524,53.218,6.0693,93.2712,266.8454,5.7006e-05,6.19e-06,0.0,0 STARLINK-4606,1 53632U 22104AW  24046.32909196  .00000619  00000-0  57006-4 0  9991,2 53632  53.2180   6.0693 0001524  93.2712 266.8454 15.08841323 82493,6917.876,95.437,540.796,538.687,0.0
53632.0,STARLINK-4606,PAYLOAD,2024-02-15 14:15:26,15.08837659,0.0001322,53.2196,4.8832,85.9445,274.1698,2.9328e-05,1.79e-06,0.0,0 STARLINK-4606,1 53632U 22104AW  24046.59405508  .00000179  00000-0  29328-4 0  9995,2 53632  53.2196   4.8832 0001322  85.9445 274.1698 15.08837659 82532,6917.888,95.438,540.667,538.838,0.0
53632.0,STARLINK-4606,PAYLOAD,2024-02-16 04:33:54,15.08843398,0.0001309,53.2188,2.2058,85.9536,274.1606,-1.5779e-05,-5.39e-06,0.0,0 STARLINK-4606,1 53632U 22104AW  24047.19021589 -.00000539  00000-0 -15779-4 0  9992,2 53632  53.2188   2.2058 0001309  85.9536 274.1606 15.08843398 81604,6917.87,95.437,540.641,538.829,0.0
53632.0,STARLINK-4606,PAYLOAD,2024-02-16 06:09:17,15.08852198,0.000115,53.2188,1.9087,98.1265,261.9857,5.8362e-05,6.41e-06,0.0,0 STARLINK-4606,1 53632U 22104AW  24047.25644713  .00000641  00000-0  58362-4 0  9996,2 53632  53.2188   1.9087 0001150  98.1265 261.9857 15.08852198 81612,6917.843,95.437,540.504,538.913,0.0
53632.0,STARLINK-4606,PAYLOAD,2024-02-16 14:06:12,15.08860503,0.0001302,53.2202,0.4221,77.1919,282.9218,-0.00026986,-4.583e-05,0.0,0 STARLINK-4606,1 53632U 22104AW  24047.58764967 -.00004583  00000-0 -26986-3 0  9993,2 53632  53.2202   0.4221 0001302  77.1919 282.9218 15.08860503 82686,6917.818,95.436,540.583,538.782,0.0
53632.0,STARLINK-4606,PAYLOAD,2024-02-16 20:27:46,15.08831682,0.0001233,53.2187,359.2319,93.2997,266.8136,6.419e-05,7.34e-06,0.0,0 STARLINK-4606,1 53632U 22104AW  24047.85262107  .00000734  00000-0  64190-4 0  9994,2 53632  53.2187 359.2319 0001233  93.2997 266.8136 15.08831682 81707,6917.906,95.438,540.624,538.918,0.0
53632.0,STARLINK-4606,PAYLOAD,2024-02-17 02:49:18,15.08847389,0.0001229,53.2183,358.0453,115.5443,244.5676,-6.1107e-06,-3.85e-06,0.0,0 STARLINK-4606,1 53632U 22104AW  24048.11757368 -.00000385  00000-0 -61107-5 0  9992,2 53632  53.2183 358.0453 0001229 115.5443 244.5676 15.08847389 81745,6917.858,95.437,540.573,538.873,0.0
53632.0,STARLINK-4606,PAYLOAD,2024-02-17 06:00:03,15.08853075,0.0001548,53.2201,357.4472,83.5194,276.5975,0.00013372,1.842e-05,0.0,0 STARLINK-4606,1 53632U 22104AW  24048.25004603  .00001842  00000-0  13372-3 0  9990,2 53632  53.2201 357.4472 0001548  83.5194 276.5975 15.08853075 81769,6917.84,95.437,540.776,538.635,0.0
53632.0,STARLINK-4606,PAYLOAD,2024-02-17 13:57:00,15.08834705,0.0001469,53.2207,355.9581,95.5487,264.5673,4.586e-05,4.42e-06,0.0,0 STARLINK-4606,1 53632U 22104AW  24048.58125985  .00000442  00000-0  45860-4 0  9996,2 53632  53.2207 355.9581 0001469  95.5487 264.5673 15.08834705 82839,6917.897,95.438,540.778,538.745,0.0
53632.0,STARLINK-4606,PAYLOAD,2024-02-17 20:18:33,15.08832398,0.0001734,53.2213,354.7703,92.5998,267.5192,6.0662e-05,6.77e-06,0.0,0 STARLINK-4606,1 53632U 22104AW  24048.84622363  .00000677  00000-0  60662-4 0  9994,2 53632  53.2213 354.7703 0001734  92.5998 267.5192 15.08832398 81854,6917.904,95.438,540.968,538.569,0.0
53632.0,STARLINK-4606,PAYLOAD,2024-02-18 02:40:05,15.08839506,0.0001434,53.2186,353.5842,87.2884,272.8272,9.7907e-05,1.271e-05,0.0,0 STARLINK-4606,1 53632U 22104AW  24049.11117749  .00001271  00000-0  97907-4 0  9995,2 53632  53.2186 353.5842 0001434  87.2884 272.8272 15.08839506 81896,6917.882,95.438,540.739,538.755,0.0
53632.0,STARLINK-4606,PAYLOAD,2024-02-18 05:50:51,15.08852307,0.0001457,53.2192,352.9868,98.0687,262.0471,6.8818e-05,8.08e-06,0.0,0 STARLINK-4606,1 53632U 22104AW  24049.24364966  .00000808  00000-0  68818-4 0  9998,2 53632  53.2192 352.9868 0001457  98.0687 262.0471 15.08852307 81919,6917.843,95.437,540.716,538.7,0.0
